0 GLOBALSTAR M043
1 25874U 99041C   13280.46606875 -.00000068  00000-0  41171-5 0  7739
2 25874 051.9413 330.3465 0010224 225.8418 220.0284 11.25641840641960
0 GLOBALSTAR M043
1 25874U 99041C   13284.47552267 -.00000066  00000-0  65755-4 0  7741
2 25874 051.9409 320.9896 0010195 233.2461 266.9985 11.25641933642417
0 GLOBALSTAR M043
1 25874U 99041C   13288.48044528 -.00000086  00000-0 -52964-3 0  7753
2 25874 051.9405 311.6432 0010167 240.6214 295.6272 11.25642009642865
0 GLOBALSTAR M043
1 25874U 99041C   13292.55779253 -.00000074  00000-0 -17581-3 0  7760
2 25874 051.9403 302.1275 0010144 248.0613 257.8048 11.25641656643323
